0 TITAN 3C TRANSTAGE DEB
1 36983U 65108DP  13282.81301417  .00006390  00000-0  73318-3 0  7519
2 36983 027.0211 085.3554 4986333 284.8973 060.5937 05.66936930322005
0 TITAN 3C TRANSTAGE DEB
1 36983U 65108DP  13285.44454229  .00006082  00000-0  70605-3 0  7537
2 36983 027.0198 082.1754 4986080 290.1983 031.5392 05.66971911322153
0 TITAN 3C TRANSTAGE DEB
1 36983U 65108DP  13287.74427097  .00007131  00000-0  83472-3 0  7548
2 36983 027.0188 079.3958 4985796 294.8299 045.5600 05.67001646322281
0 TITAN 3C TRANSTAGE DEB
1 36983U 65108DP  13289.15922792  .00006760  00000-0  79248-3 0  7551
2 36983 027.0181 077.6853 4985615 297.6807 053.7823 05.67026724322366
0 TITAN 3C TRANSTAGE DEB
1 36983U 65108DP  13290.37884818  .00006869  00000-0  80548-3 0  7569
2 36983 027.0175 076.2105 4985473 300.1361 023.3890 05.67040814322432
0 TITAN 3C TRANSTAGE DEB
1 36983U 65108DP  13291.62452297  .00006391  00000-0  75181-3 0  7578
2 36983 027.0162 074.7034 4985167 302.6491 046.2441 05.67056618322506
0 TITAN 3C TRANSTAGE DEB
1 36983U 65108DP  13292.67958021  .00006975  00000-0  82013-3 0  7581
2 36983 027.0157 073.4274 4985041 304.7738 040.0596 05.67064941322567
0 TITAN 3C TRANSTAGE DEB
1 36983U 65108DP  13293.37655940  .00006446  00000-0  75805-3 0  7598
2 36983 027.0153 072.5840 4984918 306.1809 022.8859 05.67076708322608
0 TITAN 3C TRANSTAGE DEB
1 36983U 65108DP  13294.61708027  .00006398  00000-0  75088-3 0  7602
2 36983 027.0153 071.0849 4984857 308.6770 035.3913 05.67091866322676
